ORBCOMM FM05            
1 25117U 97084F   24185.82114021  .00001656  00000+0  53208-3 0  9991
2 25117  45.0141 237.1953 0004902 273.5577  86.4713 14.43012773390232
ORBCOMM FM06            
1 25118U 97084G   24185.87987479  .00001961  00000+0  62144-3 0  9990
2 25118  45.0134 237.0531 0004149 279.8817 251.2970 14.43093427391159
ORBCOMM FM07            
1 25119U 97084H   24185.84157913  .00001788  00000+0  57145-3 0  9992
2 25119  45.0129 237.8076 0005577 267.3924  92.6288 14.42994779391140
ORBCOMM FM03            
1 25158U 98007B   24185.78695410  .00001888  00000+0  73703-3 0  9992
2 25158 107.9691 140.8601 0045703 138.0634 222.4018 14.32384033374116
ORBCOMM FM04            
1 25159U 98007C   24185.90509840  .00001679  00000+0  65873-3 0  9995
2 25159 107.9678 144.0768 0041255 135.5711 224.8748 14.32654701374307
ORBCOMM FM17            
1 25413U 98046A   24186.13974017  .00001278  00000+0  51039-3 0  9993
2 25413  44.9950  98.1523 0002534 295.4358  64.6226 14.33337870353372
ORBCOMM FM18            
1 25414U 98046B   24185.88853686  .00001877  00000+0  68602-3 0  9992
2 25414  44.9948  25.2588 0003362 324.8612  35.2013 14.36169145354136
ORBCOMM FM19            
1 25415U 98046C   24185.95821847  .00001739  00000+0  64111-3 0  9993
2 25415  44.9957  26.4142 0002253 313.5413 189.9884 14.36001318354105
